[
    {
        "Altitude(m)": 703504.1635742456,
        "Argument of Periapsis(deg)": 0.0034170363559881197,
        "Eccentricity": 0.0,
        "Inclination(deg)": 45.0,
        "Latitude(deg)": 24.75995721058964,
        "Longitude(deg)": -112.9047989807632,
        "Mean Anomaly(deg)": 36.18726499424425,
        "RAAN(deg)": 319.9967744175625,
        "Satellite Name": "Constellation 1 1410",
        "Satellite Number": 1410,
        "Semi-Major Axis(m)": 7083131.272910544,
        "Time(s)": 57
    },
    {
        "Altitude(m)": 703508.9057375184,
        "Argument of Periapsis(deg)": 0.003476984362233526,
        "Eccentricity": 0.0,
        "Inclination(deg)": 45.0,
        "Latitude(deg)": 24.79829814993909,
        "Longitude(deg)": -112.8569586420559,
        "Mean Anomaly(deg)": 36.247966134494135,
        "RAAN(deg)": 319.996717828397,
        "Satellite Name": "Constellation 1 1410",
        "Satellite Number": 1410,
        "Semi-Major Axis(m)": 7083131.272910544,
        "Time(s)": 58
    },
    {
        "Altitude(m)": 703513.6576332386,
        "Argument of Periapsis(deg)": 0.003536932368478932,
        "Eccentricity": 0.0,
        "Inclination(deg)": 45.0,
        "Latitude(deg)": 24.836620862234174,
        "Longitude(deg)": -112.80908653301012,
        "Mean Anomaly(deg)": 36.308667274744025,
        "RAAN(deg)": 319.9966612392314,
        "Satellite Name": "Constellation 1 1410",
        "Satellite Number": 1410,
        "Semi-Major Axis(m)": 7083131.272910544,
        "Time(s)": 59
    },
    {
        "Altitude(m)": 703518.4192246428,
        "Argument of Periapsis(deg)": 0.003596880374724337,
        "Eccentricity": 0.0,
        "Inclination(deg)": 45.0,
        "Latitude(deg)": 24.87492530468676,
        "Longitude(deg)": -112.76118225684772,
        "Mean Anomaly(deg)": 36.369368414993964,
        "RAAN(deg)": 319.9966046500659,
        "Satellite Name": "Constellation 1 1410",
        "Satellite Number": 1410,
        "Semi-Major Axis(m)": 7083131.272910544,
        "Time(s)": 60
    },
    {
        "Altitude(m)": 703523.1904749131,
        "Argument of Periapsis(deg)": 0.0036568283809697427,
        "Eccentricity": 0.0,
        "Inclination(deg)": 45.0,
        "Latitude(deg)": 24.913211434446758,
        "Longitude(deg)": -112.71324592107482,
        "Mean Anomaly(deg)": 36.430069555243854,
        "RAAN(deg)": 319.99654806090024,
        "Satellite Name": "Constellation 1 1410",
        "Satellite Number": 1410,
        "Semi-Major Axis(m)": 7083131.272910544,
        "Time(s)": 61
    },
    {
        "Altitude(m)": 703527.9713472202,
        "Argument of Periapsis(deg)": 0.003716776387215149,
        "Eccentricity": 0.0,
        "Inclination(deg)": 45.0,
        "Latitude(deg)": 24.951479208601317,
        "Longitude(deg)": -112.66527746509378,
        "Mean Anomaly(deg)": 36.49077069549374,
        "RAAN(deg)": 319.99649147173466,
        "Satellite Name": "Constellation 1 1410",
        "Satellite Number": 1410,
        "Semi-Major Axis(m)": 7083131.272910544,
        "Time(s)": 62
    },
    {
        "Altitude(m)": 703532.7618046987,
        "Argument of Periapsis(deg)": 0.003776724393460554,
        "Eccentricity": 0.0,
        "Inclination(deg)": 45.0,
        "Latitude(deg)": 24.98972858417492,
        "Longitude(deg)": -112.61727682830067,
        "Mean Anomaly(deg)": 36.55147183574362,
        "RAAN(deg)": 319.99643488256913,
        "Satellite Name": "Constellation 1 1410",
        "Satellite Number": 1410,
        "Semi-Major Axis(m)": 7083131.272910544,
        "Time(s)": 63
    },
    {
        "Altitude(m)": 703537.5618104447,
        "Argument of Periapsis(deg)": 0.003836672399705959,
        "Eccentricity": 0.0,
        "Inclination(deg)": 45.0,
        "Latitude(deg)": 25.027959518129414,
        "Longitude(deg)": -112.56924395008545,
        "Mean Anomaly(deg)": 36.61217297599356,
        "RAAN(deg)": 319.99637829340355,
        "Satellite Name": "Constellation 1 1410",
        "Satellite Number": 1410,
        "Semi-Major Axis(m)": 7083131.272910544,
        "Time(s)": 64
    },
    {
        "Altitude(m)": 703542.3713275319,
        "Argument of Periapsis(deg)": 0.003896620405951365,
        "Eccentricity": 0.0,
        "Inclination(deg)": 45.0,
        "Latitude(deg)": 25.066171967363584,
        "Longitude(deg)": -112.52117876983247,
        "Mean Anomaly(deg)": 36.67287411624345,
        "RAAN(deg)": 319.996321704238,
        "Satellite Name": "Constellation 1 1410",
        "Satellite Number": 1410,
        "Semi-Major Axis(m)": 7083131.272910544,
        "Time(s)": 65
    },
    {
        "Altitude(m)": 703547.1903189952,
        "Argument of Periapsis(deg)": 0.003956568412196771,
        "Eccentricity": 0.0,
        "Inclination(deg)": 45.0,
        "Latitude(deg)": 25.10436588871338,
        "Longitude(deg)": -112.47308122692056,
        "Mean Anomaly(deg)": 36.73357525649333,
        "RAAN(deg)": 319.9962651150724,
        "Satellite Name": "Constellation 1 1410",
        "Satellite Number": 1410,
        "Semi-Major Axis(m)": 7083131.272910544,
        "Time(s)": 66
    },
    {
        "Altitude(m)": 703552.0187478552,
        "Argument of Periapsis(deg)": 0.004016516418442176,
        "Eccentricity": 0.0,
        "Inclination(deg)": 45.0,
        "Latitude(deg)": 25.142541238951743,
        "Longitude(deg)": -112.42495142882048,
        "Mean Anomaly(deg)": 36.79427639674327,
        "RAAN(deg)": 319.9962085259068,
        "Satellite Name": "Constellation 1 1410",
        "Satellite Number": 1410,
        "Semi-Major Axis(m)": 7083131.272910544,
        "Time(s)": 67
    },
    {
        "Altitude(m)": 703556.8565770794,
        "Argument of Periapsis(deg)": 0.004076464424687581,
        "Eccentricity": 0.0,
        "Inclination(deg)": 45.0,
        "Latitude(deg)": 25.18069797478806,
        "Longitude(deg)": -112.37678897870695,
        "Mean Anomaly(deg)": 36.85497753699316,
        "RAAN(deg)": 319.9961519367413,
        "Satellite Name": "Constellation 1 1410",
        "Satellite Number": 1410,
        "Semi-Major Axis(m)": 7083131.272910544,
        "Time(s)": 68
    },
    {
        "Altitude(m)": 703561.7037696252,
        "Argument of Periapsis(deg)": 0.004136412430932987,
        "Eccentricity": 0.0,
        "Inclination(deg)": 45.0,
        "Latitude(deg)": 25.218836052868845,
        "Longitude(deg)": -112.32859398404139,
        "Mean Anomaly(deg)": 36.915678677243044,
        "RAAN(deg)": 319.9960953475757,
        "Satellite Name": "Constellation 1 1410",
        "Satellite Number": 1410,
        "Semi-Major Axis(m)": 7083131.272910544,
        "Time(s)": 69
    },
    {
        "Altitude(m)": 703566.5602884131,
        "Argument of Periapsis(deg)": 0.004196360437178394,
        "Eccentricity": 0.0,
        "Inclination(deg)": 45.0,
        "Latitude(deg)": 25.256955429777115,
        "Longitude(deg)": -112.28036638418384,
        "Mean Anomaly(deg)": 36.976379817492926,
        "RAAN(deg)": 319.9960387584101,
        "Satellite Name": "Constellation 1 1410",
        "Satellite Number": 1410,
        "Semi-Major Axis(m)": 7083131.272910544,
        "Time(s)": 70
    },
    {
        "Altitude(m)": 703571.4260963269,
        "Argument of Periapsis(deg)": 0.004256308443423799,
        "Eccentricity": 0.0,
        "Inclination(deg)": 45.0,
        "Latitude(deg)": 25.295056062032447,
        "Longitude(deg)": -112.23210611849025,
        "Mean Anomaly(deg)": 37.037080957742866,
        "RAAN(deg)": 319.99598216924454,
        "Satellite Name": "Constellation 1 1410",
        "Satellite Number": 1410,
        "Semi-Major Axis(m)": 7083131.272910544,
        "Time(s)": 71
    },
    {
        "Altitude(m)": 703576.3011562335,
        "Argument of Periapsis(deg)": 0.004316256449669204,
        "Eccentricity": 0.0,
        "Inclination(deg)": 45.0,
        "Latitude(deg)": 25.33313790609074,
        "Longitude(deg)": -112.18381312631321,
        "Mean Anomaly(deg)": 37.097782097992756,
        "RAAN(deg)": 319.99592558007896,
        "Satellite Name": "Constellation 1 1410",
        "Satellite Number": 1410,
        "Semi-Major Axis(m)": 7083131.272910544,
        "Time(s)": 72
    },
    {
        "Altitude(m)": 703581.1854309646,
        "Argument of Periapsis(deg)": 0.00437620445591461,
        "Eccentricity": 0.0,
        "Inclination(deg)": 45.0,
        "Latitude(deg)": 25.37120091834427,
        "Longitude(deg)": -112.13548734700178,
        "Mean Anomaly(deg)": 37.15848323824259,
        "RAAN(deg)": 319.99586899091344,
        "Satellite Name": "Constellation 1 1410",
        "Satellite Number": 1410,
        "Semi-Major Axis(m)": 7083131.272910544,
        "Time(s)": 73
    },
    {
        "Altitude(m)": 703586.0788833189,
        "Argument of Periapsis(deg)": 0.004436152462160016,
        "Eccentricity": 0.0,
        "Inclination(deg)": 45.0,
        "Latitude(deg)": 25.409245055121794,
        "Longitude(deg)": -112.08712888799894,
        "Mean Anomaly(deg)": 37.21918437849258,
        "RAAN(deg)": 319.99581240174786,
        "Satellite Name": "Constellation 1 1410",
        "Satellite Number": 1410,
        "Semi-Major Axis(m)": 7083131.272910544,
        "Time(s)": 74
    },
    {
        "Altitude(m)": 703590.9814760742,
        "Argument of Periapsis(deg)": 0.0044961004684054215,
        "Eccentricity": 0.0,
        "Inclination(deg)": 45.0,
        "Latitude(deg)": 25.447270272687508,
        "Longitude(deg)": -112.03873735245443,
        "Mean Anomaly(deg)": 37.27988551874241,
        "RAAN(deg)": 319.9957558125823,
        "Satellite Name": "Constellation 1 1410",
        "Satellite Number": 1410,
        "Semi-Major Axis(m)": 7083131.272910544,
        "Time(s)": 75
    }
]